STARLINK-31351          
1 58972U 24031H   24175.82577863 -.00000592  00000+0 -86973-5 0  9991
2 58972  53.1603 315.4173 0001770  98.3709 261.7491 15.28018264 20993
STARLINK-31365          
1 58973U 24031J   24175.55946770 -.00001112  00000+0 -27486-4 0  9991
2 58973  53.1588 316.5986 0001306  84.8224 275.2925 15.28017885 20964
STARLINK-31361          
1 58974U 24031K   24175.69061935 -.00000097  00000+0  91618-5 0  9997
2 58974  53.1604 315.9975 0001369 108.1466 251.9683 15.28028612 20986
STARLINK-31369          
1 58975U 24031L   24175.68593790  .00005549  00000+0  21277-3 0  9994
2 58975  53.1589 315.9660 0001421 104.4962 255.6196 15.28031229 20965
STARLINK-31324          
1 58976U 24031M   24175.68559451  .00007077  00000+0  26774-3 0  9996
2 58976  53.1578 315.9623 0001082  88.8354 271.2769 15.28040024 20969
STARLINK-31358          
1 58977U 24031N   24175.78848941  .00005552  00000+0  21289-3 0  9995
2 58977  53.1611 313.7520 0001145  93.6640 266.4491 15.28030696 21000
STARLINK-31355          
1 58978U 24031P   24175.55010939 -.00001979  00000+0 -58798-4 0  9996
2 58978  53.1593 316.5386 0001100  96.5840 263.5285 15.28019869 20946
STARLINK-31380          
1 58979U 24031Q   24175.67657840  .00013977  00000+0  51650-3 0  9996
2 58979  53.1600 315.9098 0001466  90.5808 269.5359 15.28009050 20963
STARLINK-31353          
1 58980U 24031R   24175.67189612  .00000944  00000+0  46723-4 0  9991
2 58980  53.1614 315.8788 0000858  97.5746 262.5351 15.28031520 20969
STARLINK-31339          
1 58981U 24031S   24175.67624482  .00007782  00000+0  29318-3 0  9998
2 58981  53.1605 315.9079 0001380  87.6672 272.4486 15.28035944 20966
STARLINK-31360          
1 58982U 24031T   24175.77931451 -.00000102  00000+0  89903-5 0  9995
2 58982  53.1659 315.1272 0001117  87.2118 272.9010 15.28023110 20984
STARLINK-31384          
1 58983U 24031U   24175.66722817  .00002074  00000+0  87508-4 0  9995
2 58983  53.1617 315.8505 0001439  98.4523 261.6640 15.28024140 20962
STARLINK-31379          
1 58984U 24031V   24175.79770563  .00002559  00000+0  10500-3 0  9996
2 58984  53.1606 315.2383 0001353  73.0109 287.1039 15.28023486 20982
STARLINK-31385          
1 58985U 24031W   24175.77862056  .00004906  00000+0  18965-3 0  9995
2 58985  53.1615 312.2466 0002270  93.2183 266.9076 15.28025655 21029
STARLINK-31229          
1 58986U 24031X   24175.66254402 -.00000028  00000+0  11656-4 0  9997
2 58986  53.1620 315.8169 0001276 102.5227 257.5916 15.28027403 20967
STARLINK-31468          
1 58998U 24036A   24175.95427760 -.00000173  00000+0  64195-5 0  9994
2 58998  53.1605  95.5331 0001243  90.9281 269.1861 15.28022446 19834
STARLINK-31440          
1 58999U 24036B   24175.17840591  .00005772  00000+0  22080-3 0  9994
2 58999  53.1599  99.2146 0001348  95.7735 264.3418 15.28031759 18892
STARLINK-31529          
1 59000U 24036C   24175.76274697 -.00005605  00000+0 -18999-3 0  9992
2 59000  53.1593  96.4613 0001330  71.5323 288.5822 15.27995795 19711
STARLINK-31431          
1 59002U 24036E   24175.92152517  .00003319  00000+0  13242-3 0  9992
2 59002  53.1601  95.3238 0001554 100.6723 259.4452 15.28026614 19824
STARLINK-31429          
1 59003U 24036F   24175.94745048  .00007837  00000+0  28919-3 0  9998
2 59003  53.1582  95.4748 0001390 116.0510 244.0633 15.28713056 19838
STARLINK-31435          
1 59004U 24036G   24175.94960074  .00004688  00000+0  18177-3 0  9993
2 59004  53.1592  95.4948 0001563  64.0341 296.0820 15.28024634 19830
STARLINK-31484          
1 59005U 24036H   24175.94928660 -.00000613  00000+0 -94663-5 0  9991
2 59005  53.1607  95.4919 0001221  91.4782 268.6357 15.28011182 19823
STARLINK-31450          
1 59006U 24036J   24175.94457519  .00008032  00000+0  30211-3 0  9990
2 59006  53.1591  95.4611 0001336  98.5837 261.5314 15.28045037 19822
STARLINK-31456          
1 59007U 24036K   24175.94491479  .00019988  00000+0  73260-3 0  9997
2 59007  53.1583  95.4754 0000957  97.4817 262.6292 15.28008280 19822
STARLINK-31460          
1 59008U 24036L   24175.78135491  .00003939  00000+0  15478-3 0  9995
2 59008  53.1607  95.8634 0001064 137.0487 223.0596 15.28021086 19800
STARLINK-31488          
1 59009U 24036M   24175.93988603  .00004003  00000+0  15696-3 0  9999
2 59009  53.1597  95.4323 0001378 114.2156 245.8988 15.28050377 19822
STARLINK-31528          
1 59010U 24036N   24175.93523007 -.00001132  00000+0 -28188-4 0  9997
2 59010  53.1598  95.3996 0001147  90.4257 269.6874 15.28032522 19821
STARLINK-31491          
1 59011U 24036P   24175.93556517  .00000606  00000+0  34542-4 0  9994
2 59011  53.1592  95.4087 0001267  92.1399 267.9746 15.28018195 19826
STARLINK-31465          
1 59012U 24036Q   24175.93088084  .00006245  00000+0  23789-3 0  9999
2 59012  53.1581  95.3748 0001292 106.5442 253.5700 15.28024396 19826
STARLINK-31389          
1 59013U 24036R   24175.93054754  .00003605  00000+0  14273-3 0  9992
2 59013  53.1579  95.3796 0001294 101.4351 258.6794 15.28026513 19835
STARLINK-31454          
1 59014U 24036S   24175.92619865  .00005297  00000+0  20361-3 0  9996
2 59014  53.1586  95.3452 0001316  64.3350 295.7785 15.28042361 19824
STARLINK-31521          
1 59015U 24036T   24175.92587091 -.00002100  00000+0 -63114-4 0  9998
2 59015  53.1606  95.3396 0002178 100.4495 259.6751 15.28041519 19820
STARLINK-31526          
1 59016U 24036U   24175.92700886  .00003998  00000+0  10983-3 0  9997
2 59016  53.1573  83.2307 0001065 116.9218 243.1896 15.39631960 19994
STARLINK-31406          
1 59017U 24036V   24175.92118029  .00004876  00000+0  18843-3 0  9999
2 59017  53.1603  95.3109 0001239 103.2239 256.8899 15.28046182 19839
STARLINK-31527          
1 59018U 24036W   24175.91684465 -.00000351  00000+0 -22460-8 0  9992
2 59018  53.1598  95.2866 0001584 123.6415 236.4736 15.28027754 19824
STARLINK-31436          
1 59019U 24036X   24175.91651226  .00000839  00000+0  42941-4 0  9993
2 59019  53.1610  95.2809 0001450 106.7700 253.3459 15.28024036 19828
STARLINK-30996          
1 59023U 24038A   24175.74392732  .00003306  00000+0  13613-3 0  9990
2 59023  43.0001 304.7237 0000771 270.9600  89.1162 15.25917475 20773
STARLINK-31006          
1 59024U 24038B   24175.37533439  .00003019  00000+0  79528-4 0  9990
2 59024  42.9971 292.3752 0000895 220.0106 140.0685 15.40683942 19519
STARLINK-31178          
1 59025U 24038C   24175.74167254  .00005692  00000+0  22720-3 0  9990
2 59025  43.0004 304.6972 0001052 251.7470 108.3266 15.25922027 19291
STARLINK-31227          
1 59026U 24038D   24175.54303739 -.00000212  00000+0  17139-5 0  9993
2 59026  43.0016 305.7869 0000937 283.2511  76.8235 15.25905936 19373
STARLINK-30863          
1 59027U 24038E   24175.67168886  .00000028  00000+0  10891-4 0  9991
2 59027  43.0017 305.0303 0000794 331.2459  28.8348 15.25912811 19289
STARLINK-31206          
1 59028U 24038F   24175.49545352 -.00001114  00000+0 -19420-4 0  9995
2 59028  43.0007 278.2859 0000979 303.6207  56.4556 15.40697470 19708
STARLINK-31224          
1 59029U 24038G   24175.66941272  .00002705  00000+0  11317-3 0  9997
2 59029  43.0004 305.0074 0001050 205.8082 154.2716 15.25921494 19398
STARLINK-31186          
1 59030U 24038H   24175.73262417  .00007268  00000+0  28728-3 0  9997
2 59030  42.9968 304.6228 0000397 257.5621 102.5186 15.25923486 19401
STARLINK-31211          
1 59031U 24038J   24175.66490435 -.00000524  00000+0 -10192-4 0  9990
2 59031  42.9975 304.9752 0000993 190.4829 169.6002 15.25906578 19282
STARLINK-30862          
1 59032U 24038K   24175.76188687  .00021863  00000+0  84229-3 0  9993
2 59032  43.0004 304.0080 0001565 274.9874  85.0798 15.25944213 19301
STARLINK-31210          
1 59033U 24038L   24175.75960207  .00010648  00000+0  41583-3 0  9994
2 59033  43.0013 303.9870 0001607 264.8833  95.1835 15.25949841 19471
STARLINK-31231          
1 59034U 24038M   24175.36235428  .00001090  00000+0  51484-4 0  9995
2 59034  43.0021 306.1615 0001209 254.1610 105.9107 15.25914994 19244
STARLINK-31207          
1 59035U 24038N   24175.75283471  .00004291  00000+0  17369-3 0  9999
2 59035  43.0004 303.9307 0001370 271.3526  88.7168 15.25926673 19472
STARLINK-31217          
1 59036U 24038P   24175.69050487  .00002018  00000+0  55565-4 0  9998
2 59036  43.0081 290.4646 0001863 286.0732  73.9919 15.40707088 19624
STARLINK-31208          
1 59037U 24038Q   24175.72115674  .00006195  00000+0  24648-3 0  9990
2 59037  43.0044 303.6442 0003334 241.5780 118.4736 15.25908801 19473
STARLINK-31235          
1 59038U 24038R   24175.75059275 -.00001199  00000+0 -36006-4 0  9991
2 59038  43.0020 303.9102 0001275 273.9094  86.1612 15.25901023 19410
STARLINK-31220          
1 59039U 24038S   24175.84771857  .00001968  00000+0  85062-4 0  9997
2 59039  42.9997 303.7746 0001854 255.4918 104.5727 15.25905878 19422
STARLINK-31225          
1 59040U 24038T   24175.33494025  .00002014  00000+0  86844-4 0  9994
2 59040  43.0057 304.1763 0003340 299.8350  60.2169 15.25911513 19264
STARLINK-31240          
1 59041U 24038U   24175.44817882  .00001393  00000+0  63090-4 0  9994
2 59041  43.0003 305.9415 0001568 271.2526  88.8146 15.25908675 19365
STARLINK-31202          
1 59042U 24038V   24175.75721910  .00000255  00000+0  19603-4 0  9992
2 59042  43.0006 303.1124 0002157 269.7096  90.3508 15.25925249 19484
STARLINK-31234          
1 59043U 24038W   24175.76868027  .00002485  00000+0  10481-3 0  9996
2 59043  42.9995 304.0545 0001473 270.0856  89.9826 15.25910484 19309
STARLINK-31153          
1 59044U 24038X   24175.74606169  .00000257  00000+0  19670-4 0  9997
2 59044  43.0029 303.8748 0000927 272.1787  87.8958 15.25905092 19303
STARLINK-31241          
1 59045U 24038Y   24175.63549596  .00001964  00000+0  84866-4 0  9991
2 59045  42.9982 304.7765 0001185 287.2400  72.8321 15.25916139 19453
